CTC2_L_00568024-03
1 11812U 26358RT  26070.40850694  .00000000  00000+0  00000-0 0  9997
2 11812  99.5000 276.0000 0000000   0.0000 228.0000 13.56072486    18
CTC2_L_00568024-04
1 11813U 25226PH  26070.40850694  .00000000  00000+0  00000-0 0  9991
2 11813  99.5000 276.0000 0000000   0.0000 273.0000 13.56072486    19
CTC2_L_00568024-05
1 11814U 24694YY  26070.40850694  .00000000  00000+0  00000-0 0  9990
2 11814  99.5000 276.0000 0000000   0.0000 318.0000 13.56072486    10
CTC2_L_00568024-06
1 11815U 24198XQ  26070.40850694  .00000000  00000+0  00000-0 0  9990
2 11815  99.5000 276.0000 0000000   0.0000   3.0000 13.56072486    12
CTC2_L_00568024-07
1 11816U 26257DB  26070.40850694  .00000000  00000+0  00000-0 0  9999
2 11816  99.5000 276.0000 0000000   0.0000  48.0000 13.56072486    12
CTC2_L_00568024-08
1 11817U 24717PE  26070.40850694  .00000000  00000+0  00000-0 0  9999
2 11817  99.5000 276.0000 0000000   0.0000  93.0000 13.56072486    13
CTC2_L_00568025-01
1 11818U 22189UE  26070.40850694  .00000000  00000+0  00000-0 0  9991
2 11818  99.5000 288.0000 0000000   0.0000 144.0000 13.56072486    14
CTC2_L_00568025-02
1 11819U 22826UC  26070.40850694  .00000000  00000+0  00000-0 0  9990
2 11819  99.5000 288.0000 0000000   0.0000 189.0000 13.56072486    14
CTC2_L_00568025-03
1 11820U 26121S   26070.40850694  .00000000  00000+0  00000-0 0  9994
2 11820  99.5000 288.0000 0000000   0.0000 234.0000 13.56072486    17
CTC2_L_00568025-04
1 11821U 23283QB  26070.40850694  .00000000  00000+0  00000-0 0  9991
2 11821  99.5000 288.0000 0000000   0.0000 279.0000 13.56072486    17
CTC2_L_00568025-05
1 11822U 22564BI  26070.40850694  .00000000  00000+0  00000-0 0  9993
2 11822  99.5000 288.0000 0000000   0.0000 324.0000 13.56072486    19
CTC2_L_00568025-06
1 11823U 23898NS  26070.40850694  .00000000  00000+0  00000-0 0  9995
2 11823  99.5000 288.0000 0000000   0.0000   9.0000 13.56072486    10
CTC2_L_00568025-07
1 11824U 24820CW  26070.40850694  .00000000  00000+0  00000-0 0  9992
2 11824  99.5000 288.0000 0000000   0.0000  54.0000 13.56072486    11
CTC2_L_00568025-08
1 11825U 26616BS  26070.40850694  .00000000  00000+0  00000-0 0  9998
2 11825  99.5000 288.0000 0000000   0.0000  99.0000 13.56072486    11
CTC2_L_00568026-01
1 11826U 23191RK  26070.40850694  .00000000  00000+0  00000-0 0  9994
2 11826  99.5000 300.0000 0000000   0.0000 150.0000 13.56072486    15
CTC2_L_00568026-02
1 11827U 26742YT  26070.40850694  .00000000  00000+0  00000-0 0  9990
2 11827  99.5000 300.0000 0000000   0.0000 195.0000 13.56072486    15
CTC2_L_00568026-03
1 11828U 25021ZP  26070.40850694  .00000000  00000+0  00000-0 0  9990
2 11828  99.5000 300.0000 0000000   0.0000 240.0000 13.56072486    17
CTC2_L_00568026-04
1 11829U 23965SH  26070.40850694  .00000000  00000+0  00000-0 0  9996
2 11829  99.5000 300.0000 0000000   0.0000 285.0000 13.56072486    17
CTC2_L_00568026-05
1 11830U 22565DY  26070.40850694  .00000000  00000+0  00000-0 0  9993
2 11830  99.5000 300.0000 0000000   0.0000 330.0000 13.56072486    10
CTC2_L_00568026-06
1 11831U 23130SU  26070.40850694  .00000000  00000+0  00000-0 0  9993
2 11831  99.5000 300.0000 0000000   0.0000  15.0000 13.56072486    11
CTC2_L_00568026-07
1 11832U 22999TF  26070.40850694  .00000000  00000+0  00000-0 0  9996
2 11832  99.5000 300.0000 0000000   0.0000  60.0000 13.56072486    12
CTC2_L_00568026-08
1 11833U 23393AI  26070.40850694  .00000000  00000+0  00000-0 0  9996
2 11833  99.5000 300.0000 0000000   0.0000 105.0000 13.56072486    13
CTC2_L_00568027-01
1 11834U 24551UU  26070.40850694  .00000000  00000+0  00000-0 0  9994
2 11834  99.5000 312.0000 0000000   0.0000 156.0000 13.56072486    13
CTC2_L_00568027-02
1 11835U 26415CE  26070.40850694  .00000000  00000+0  00000-0 0  9996
2 11835  99.5000 312.0000 0000000   0.0000 201.0000 13.56072486    15
CTC2_L_00568027-03
1 11836U 23126EE  26070.40850694  .00000000  00000+0  00000-0 0  9993
2 11836  99.5000 312.0000 0000000   0.0000 246.0000 13.56072486    15
CTC2_L_00568027-04
1 11837U 26098LH  26070.40850694  .00000000  00000+0  00000-0 0  9995
2 11837  99.5000 312.0000 0000000   0.0000 291.0000 13.56072486    16
CTC2_L_00568027-05
1 11838U 22533DG  26070.40850694  .00000000  00000+0  00000-0 0  9996
2 11838  99.5000 312.0000 0000000   0.0000 336.0000 13.56072486    17
CTC2_L_00568027-06
1 11839U 25538QN  26070.40850694  .00000000  00000+0  00000-0 0  9995
2 11839  99.5000 312.0000 0000000   0.0000  21.0000 13.56072486    19
CTC2_L_00568027-07
1 11840U 24829MG  26070.40850694  .00000000  00000+0  00000-0 0  9999
2 11840  99.5000 312.0000 0000000   0.0000  66.0000 13.56072486    10
CTC2_L_00568027-08
1 11841U 25463OW  26070.40850694  .00000000  00000+0  00000-0 0  9995
2 11841  99.5000 312.0000 0000000   0.0000 111.0000 13.56072486    12
CTC2_L_00568028-01
1 11842U 26431MQ  26070.40850694  .00000000  00000+0  00000-0 0  9992
2 11842  99.5000 324.0000 0000000   0.0000 162.0000 13.56072486    12
CTC2_L_00568028-02
1 11843U 22439DZ  26070.40850694  .00000000  00000+0  00000-0 0  9997
2 11843  99.5000 324.0000 0000000   0.0000 207.0000 13.56072486    13
CTC2_L_00568028-03
1 11844U 24999UL  26070.40850694  .00000000  00000+0  00000-0 0  9991
2 11844  99.5000 324.0000 0000000   0.0000 252.0000 13.56072486    14
CTC2_L_00568028-04
1 11845U 24092TO  26070.40850694  .00000000  00000+0  00000-0 0  9996
2 11845  99.5000 324.0000 0000000   0.0000 297.0000 13.56072486    14
CTC2_L_00568028-05
1 11846U 22234RU  26070.40850694  .00000000  00000+0  00000-0 0  9993
2 11846  99.5000 324.0000 0000000   0.0000 342.0000 13.56072486    16
CTC2_L_00568028-06
1 11847U 26181SA  26070.40850694  .00000000  00000+0  00000-0 0  9999
2 11847  99.5000 324.0000 0000000   0.0000  27.0000 13.56072486    17
CTC2_L_00568028-07
1 11848U 23241MV  26070.40850694  .00000000  00000+0  00000-0 0  9994
2 11848  99.5000 324.0000 0000000   0.0000  72.0000 13.56072486    18
CTC2_L_00568028-08
1 11849U 24387BT  26070.40850694  .00000000  00000+0  00000-0 0  9997
2 11849  99.5000 324.0000 0000000   0.0000 117.0000 13.56072486    19
CTC2_L_00568029-01
1 11850U 24835FQ  26070.40850694  .00000000  00000+0  00000-0 0  9997
2 11850  99.5000 336.0000 0000000   0.0000 168.0000 13.56072486    10
CTC2_L_00568029-02
1 11851U 23703DC  26070.40850694  .00000000  00000+0  00000-0 0  9991
2 11851  99.5000 336.0000 0000000   0.0000 213.0000 13.56072486    12
CTC2_L_00568029-03
1 11852U 22551LR  26070.40850694  .00000000  00000+0  00000-0 0  9992
2 11852  99.5000 336.0000 0000000   0.0000 258.0000 13.56072486    12
CTC2_L_00568029-04
1 11853U 26916FH  26070.40850694  .00000000  00000+0  00000-0 0  9992
2 11853  99.5000 336.0000 0000000   0.0000 303.0000 13.56072486    14
CTC2_L_00568029-05
1 11854U 24093TR  26070.40850694  .00000000  00000+0  00000-0 0  9997
2 11854  99.5000 336.0000 0000000   0.0000 348.0000 13.56072486    14
CTC2_L_00568029-06
1 11855U 23806BJ  26070.40850694  .00000000  00000+0  00000-0 0  9999
2 11855  99.5000 336.0000 0000000   0.0000  33.0000 13.56072486    16
CTC2_L_00568029-07
1 11856U 22756CG  26070.40850694  .00000000  00000+0  00000-0 0  9993
2 11856  99.5000 336.0000 0000000   0.0000  78.0000 13.56072486    16
CTC2_L_00568029-08
1 11857U 23371MQ  26070.40850694  .00000000  00000+0  00000-0 0  9998
2 11857  99.5000 336.0000 0000000   0.0000 123.0000 13.56072486    18
CTC2_L_00568030-01
1 11858U 26258BL  26070.40850694  .00000000  00000+0  00000-0 0  9996
2 11858  99.5000 348.0000 0000000   0.0000 174.0000 13.56072486    18
CTC2_L_00568030-02
1 11859U 25501EP  26070.40850694  .00000000  00000+0  00000-0 0  9997
2 11859  99.5000 348.0000 0000000   0.0000 219.0000 13.56072486    19
CTC2_L_00568030-03
1 11860U 22067CR  26070.40850694  .00000000  00000+0  00000-0 0  9993
2 11860  99.5000 348.0000 0000000   0.0000 264.0000 13.56072486    11
CTC2_L_00568030-04
1 11861U 24868OQ  26070.40850694  .00000000  00000+0  00000-0 0  9995
2 11861  99.5000 348.0000 0000000   0.0000 309.0000 13.56072486    12
CTC2_L_00568030-05
1 11862U 26676WI  26070.40850694  .00000000  00000+0  00000-0 0  9995
2 11862  99.5000 348.0000 0000000   0.0000 354.0000 13.56072486    13
CTC2_L_00568030-06
1 11863U 24999JK  26070.40850694  .00000000  00000+0  00000-0 0  9992
2 11863  99.5000 348.0000 0000000   0.0000  39.0000 13.56072486    14
CTC2_L_00568030-07
1 11864U 25151QP  26070.40850694  .00000000  00000+0  00000-0 0  9994
2 11864  99.5000 348.0000 0000000   0.0000  84.0000 13.56072486    15
CTC2_L_00568030-08
1 11865U 25328ZB  26070.40850694  .00000000  00000+0  00000-0 0  9991
2 11865  99.5000 348.0000 0000000   0.0000 129.0000 13.56072486    16
